NORAD_CAT_ID,OBJECT_NAME,OBJECT_TYPE,EPOCH,MEAN_MOTION,ECCENTRICITY,INCLINATION,RA_OF_ASC_NODE,ARG_OF_PERICENTER,MEAN_ANOMALY,BSTAR,MEAN_MOTION_DOT,MEAN_MOTION_DDOT,TLE_LINE0,TLE_LINE1,TLE_LINE2,SEMIMAJOR_AXIS,PERIOD,APOGEE,PERIGEE,DECAYED
52374.0,STARLINK-3762,PAYLOAD,2024-04-15 03:39:45,15.08845614,0.0001542,53.2184,62.5287,91.737,268.3798,6.1151e-05,6.85e-06,0.0,0 STARLINK-3762,1 52374U 22045AV  24106.15261504  .00000685  00000-0  61151-4 0  9998,2 52374  53.2184  62.5287 0001542  91.7370 268.3798 15.08845614111227,6917.863,95.437,540.795,538.661,0.0
52374.0,STARLINK-3762,PAYLOAD,2024-04-15 21:09:00,15.08857502,0.0001643,53.2185,59.2607,93.062,267.056,-0.00015987,-2.833e-05,0.0,0 STARLINK-3762,1 52374U 22045AV  24106.88125592 -.00002833  00000-0 -15987-3 0  9998,2 52374  53.2185  59.2607 0001643  93.0620 267.0560 15.08857502111336,6917.827,95.436,540.828,538.555,0.0
52374.0,STARLINK-3762,PAYLOAD,2024-04-16 03:30:32,15.088509,0.000155,53.2187,58.0702,101.9107,258.2059,-2.3593e-05,-6.64e-06,0.0,0 STARLINK-3762,1 52374U 22045AV  24107.14621276 -.00000664  00000-0 -23593-4 0  9991,2 52374  53.2187  58.0702 0001550 101.9107 258.2059 15.08850900111371,6917.847,95.437,540.784,538.64,0.0
52374.0,STARLINK-3762,PAYLOAD,2024-04-17 01:45:55,15.08877029,0.0001637,53.2179,53.908,121.5357,238.5796,0.00057901,8.948e-05,0.0,0 STARLINK-3762,1 52374U 22045AV  24108.07355594  .00008948  00000-0  57901-3 0  9991,2 52374  53.2179  53.9080 0001637 121.5357 238.5796 15.08877029111512,6917.767,95.435,540.765,538.5,0.0
52374.0,STARLINK-3762,PAYLOAD,2024-04-17 06:32:04,15.08872902,0.0002347,53.218,53.0105,136.5982,223.5196,0.0004093,6.238e-05,0.0,0 STARLINK-3762,1 52374U 22045AV  24108.27227292  .00006238  00000-0  40930-3 0  9990,2 52374  53.2180  53.0105 0002347 136.5982 223.5196 15.08872902111548,6917.78,95.435,541.268,538.021,0.0
52374.0,STARLINK-3762,PAYLOAD,2024-04-18 01:36:44,15.08826201,0.0001292,53.2162,49.4436,117.3113,242.8011,-0.00025705,-4.375e-05,0.0,0 STARLINK-3762,1 52374U 22045AV  24109.06717776 -.00004375  00000-0 -25705-3 0  9994,2 52374  53.2162  49.4436 0001292 117.3113 242.8011 15.08826201111669,6917.923,95.438,540.681,538.894,0.0
52374.0,STARLINK-3762,PAYLOAD,2024-04-18 11:09:03,15.08823835,0.0001206,53.2163,47.6612,95.8498,264.2632,-0.00025676,-4.37e-05,0.0,0 STARLINK-3762,1 52374U 22045AV  24109.46462310 -.00004370  00000-0 -25676-3 0  9991,2 52374  53.2163  47.6612 0001206  95.8498 264.2632 15.08823835111721,6917.93,95.439,540.629,538.96,0.0
52374.0,STARLINK-3762,PAYLOAD,2024-04-19 04:38:15,15.08886472,0.0001068,53.2174,44.3913,100.7382,259.373,0.00057079,8.819e-05,0.0,0 STARLINK-3762,1 52374U 22045AV  24110.19323780  .00008819  00000-0  57079-3 0  9992,2 52374  53.2174  44.3913 0001068 100.7382 259.3730 15.08886472111837,6917.738,95.435,540.342,538.865,0.0
52374.0,STARLINK-3762,PAYLOAD,2024-04-19 06:13:38,15.08882628,0.0001204,53.2175,44.0925,116.1094,244.0022,0.0005513,8.507e-05,0.0,0 STARLINK-3762,1 52374U 22045AV  24110.25947845  .00008507  00000-0  55130-3 0  9993,2 52374  53.2175  44.0925 0001204 116.1094 244.0022 15.08882628111846,6917.75,95.435,540.448,538.782,0.0
52374.0,STARLINK-3762,PAYLOAD,2024-04-20 04:29:04,15.0883668,0.0001658,53.2182,39.9281,89.2424,270.8758,0.00010842,1.438e-05,0.0,0 STARLINK-3762,1 52374U 22045AV  24111.18685199  .00001438  00000-0  10842-3 0  9994,2 52374  53.2182  39.9281 0001658  89.2424 270.8758 15.08836680111987,6917.891,95.438,540.903,538.609,0.0
52374.0,STARLINK-3762,PAYLOAD,2024-04-21 02:44:31,15.08802809,0.0001651,53.2183,35.7689,76.5549,283.5627,-0.00048902,-8.054e-05,0.0,0 STARLINK-3762,1 52374U 22045AV  24112.11424831 -.00008054  00000-0 -48902-3 0  9993,2 52374  53.2183  35.7689 0001651  76.5549 283.5627 15.08802809112123,6917.994,95.44,541.001,538.717,0.0
52374.0,STARLINK-3762,PAYLOAD,2024-04-21 18:38:20,15.08841666,0.0001004,53.2198,32.7951,79.5213,280.5892,-0.00015393,-2.737e-05,0.0,0 STARLINK-3762,1 52374U 22045AV  24112.77663192 -.00002737  00000-0 -15393-3 0  9990,2 52374  53.2198  32.7951 0001004  79.5213 280.5892 15.08841666112227,6917.875,95.437,540.435,539.046,0.0
52374.0,STARLINK-3762,PAYLOAD,2024-04-22 04:10:38,15.08865965,0.0001603,53.2197,31.0046,104.8809,255.2361,0.00081605,0.00012732,0.0,0 STARLINK-3762,1 52374U 22045AV  24113.17405543  .00012732  00000-0  81605-3 0  9992,2 52374  53.2197  31.0046 0001603 104.8809 255.2361 15.08865965112285,6917.801,95.436,540.775,538.557,0.0
52374.0,STARLINK-3762,PAYLOAD,2024-04-22 18:29:08,15.08828074,0.0001256,53.2185,28.334,112.995,247.1175,0.00025178,3.72e-05,0.0,0 STARLINK-3762,1 52374U 22045AV  24113.77024154  .00003720  00000-0  25178-3 0  9993,2 52374  53.2185  28.3340 0001256 112.9950 247.1175 15.08828074112372,6917.917,95.438,540.651,538.913,0.0
52374.0,STARLINK-3762,PAYLOAD,2024-04-22 21:39:55,15.08828966,0.0001147,53.2178,27.7415,115.1446,244.9665,0.00023352,3.429e-05,0.0,0 STARLINK-3762,1 52374U 22045AV  24113.90272166  .00003429  00000-0  23352-3 0  9994,2 52374  53.2178  27.7415 0001147 115.1446 244.9665 15.08828966112395,6917.914,95.438,540.573,538.986,0.0
52374.0,STARLINK-3762,PAYLOAD,2024-04-23 00:50:41,15.08833495,0.0001077,53.2186,27.1472,98.4472,261.6642,0.00026585,3.945e-05,0.0,0 STARLINK-3762,1 52374U 22045AV  24114.03520094  .00003945  00000-0  26585-3 0  9999,2 52374  53.2186  27.1472 0001077  98.4472 261.6642 15.08833495112412,6917.9,95.438,540.51,539.02,0.0
52374.0,STARLINK-3762,PAYLOAD,2024-04-23 21:30:41,15.08849857,0.000134,53.2191,23.2831,84.3052,275.8093,-7.9417e-05,-1.552e-05,0.0,0 STARLINK-3762,1 52374U 22045AV  24114.89631159 -.00001552  00000-0 -79417-4 0  9995,2 52374  53.2191  23.2831 0001340  84.3052 275.8093 15.08849857112545,6917.85,95.437,540.642,538.788,0.0
52374.0,STARLINK-3762,PAYLOAD,2024-04-23 23:06:04,15.08848617,0.0001406,53.2197,22.9867,81.2611,278.854,2.2145e-05,6.5e-07,0.0,0 STARLINK-3762,1 52374U 22045AV  24114.96255195  .00000065  00000-0  22145-4 0  9997,2 52374  53.2197  22.9867 0001406  81.2611 278.8540 15.08848617112550,6917.854,95.437,540.692,538.746,0.0
52374.0,STARLINK-3762,PAYLOAD,2024-04-24 21:21:28,15.08842842,0.0001453,53.2199,18.8225,66.6925,293.422,0.00015032,2.105e-05,0.0,0 STARLINK-3762,1 52374U 22045AV  24115.88991537  .00002105  00000-0  15032-3 0  9999,2 52374  53.2199  18.8225 0001453  66.6925 293.4220 15.08842842112698,6917.872,95.437,540.742,538.732,0.0
52374.0,STARLINK-3762,PAYLOAD,2024-04-24 22:56:51,15.08842679,0.000147,53.2195,18.5256,62.1061,298.008,0.00017442,2.489e-05,0.0,0 STARLINK-3762,1 52374U 22045AV  24115.95615568  .00002489  00000-0  17442-3 0  9996,2 52374  53.2195  18.5256 0001470  62.1061 298.0080 15.08842679112701,6917.872,95.437,540.754,538.72,0.0
52374.0,STARLINK-3762,PAYLOAD,2024-04-25 22:47:38,15.08843146,0.0001891,53.2196,14.0699,131.371,228.7445,-5.2042e-05,-1.116e-05,0.0,0 STARLINK-3762,1 52374U 22045AV  24116.94975175 -.00001116  00000-0 -52042-4 0  9993,2 52374  53.2196  14.0699 0001891 131.3710 228.7445 15.08843146112852,6917.871,95.437,541.044,538.428,0.0
52374.0,STARLINK-3762,PAYLOAD,2024-04-26 03:33:47,15.08846666,0.0001215,53.2185,13.1653,72.2661,287.8464,4.8639e-05,4.86e-06,0.0,0 STARLINK-3762,1 52374U 22045AV  24117.14846946  .00000486  00000-0  48639-4 0  9993,2 52374  53.2185  13.1653 0001215  72.2661 287.8464 15.08846666112888,6917.86,95.437,540.566,538.884,0.0
52374.0,STARLINK-3762,PAYLOAD,2024-04-26 09:55:21,15.08832751,0.0001717,53.2175,11.9763,95.7694,264.3494,-2.5207e-05,-6.89e-06,0.0,0 STARLINK-3762,1 52374U 22045AV  24117.41343848 -.00000689  00000-0 -25207-4 0  9999,2 52374  53.2175  11.9763 0001717  95.7694 264.3494 15.08832751112926,6917.903,95.438,540.955,538.58,0.0
52374.0,STARLINK-3762,PAYLOAD,2024-04-26 16:16:53,15.08834851,0.0001747,53.217,10.7876,70.4108,289.7072,-7.956e-05,-1.554e-05,0.0,0 STARLINK-3762,1 52374U 22045AV  24117.67839948 -.00001554  00000-0 -79560-4 0  9991,2 52374  53.2170  10.7876 0001747  70.4108 289.7072 15.08834851112966,6917.896,95.438,540.97,538.553,0.0
52374.0,STARLINK-3762,PAYLOAD,2024-04-27 00:13:48,15.08855371,0.0001305,53.218,9.3012,96.307,263.8071,0.00028806,4.301e-05,0.0,0 STARLINK-3762,1 52374U 22045AV  24118.00958682  .00004301  00000-0  28806-3 0  9993,2 52374  53.2180   9.3012 0001305  96.3070 263.8071 15.08855371113017,6917.833,95.437,540.601,538.796,0.0
52374.0,STARLINK-3762,PAYLOAD,2024-04-27 09:46:07,15.08843812,0.0002086,53.2184,7.5173,75.7319,284.3905,0.0001617,2.286e-05,0.0,0 STARLINK-3762,1 52374U 22045AV  24118.40703521  .00002286  00000-0  16170-3 0  9998,2 52374  53.2184   7.5173 0002086  75.7319 284.3905 15.08843812113070,6917.869,95.437,541.177,538.291,0.0
52374.0,STARLINK-3762,PAYLOAD,2024-04-27 20:53:50,15.08828894,0.000108,53.2177,5.4366,76.307,283.8042,-0.0001748,-3.068e-05,0.0,0 STARLINK-3762,1 52374U 22045AV  24118.87072073 -.00003068  00000-0 -17480-3 0  9996,2 52374  53.2177   5.4366 0001080  76.3070 283.8042 15.08828894113144,6917.914,95.438,540.526,539.032,0.0
52374.0,STARLINK-3762,PAYLOAD,2024-04-27 22:29:13,15.08826166,7.34e-05,53.2176,5.1395,72.0275,288.0797,-0.00020836,-3.601e-05,0.0,0 STARLINK-3762,1 52374U 22045AV  24118.93696190 -.00003601  00000-0 -20836-3 0  9997,2 52374  53.2176   5.1395 0000734  72.0275 288.0797 15.08826166113152,6917.923,95.438,540.295,539.28,0.0
52374.0,STARLINK-3762,PAYLOAD,2024-04-28 00:04:36,15.08841424,0.0001106,53.2175,4.8422,78.6252,281.4864,2.2379e-05,6.8e-07,0.0,0 STARLINK-3762,1 52374U 22045AV  24119.00319548  .00000068  00000-0  22379-4 0  9992,2 52374  53.2175   4.8422 0001106  78.6252 281.4864 15.08841424113166,6917.876,95.437,540.506,538.976,0.0
52374.0,STARLINK-3762,PAYLOAD,2024-04-28 22:20:00,15.08840188,0.0001299,53.2164,0.6835,76.5013,283.6123,9.5949e-05,1.239e-05,0.0,0 STARLINK-3762,1 52374U 22045AV  24119.93055959  .00001239  00000-0  95949-4 0  9991,2 52374  53.2164   0.6835 0001299  76.5013 283.6123 15.08840188113305,6917.88,95.438,540.643,538.846,0.0
